{"type": "FeatureCollection", "features": [ {"type": "Feature", "properties": {"norad_id": 66989, "name": "CZ-4B R/B", "group": "last-30-days", "lat": 7.884914436967105, "lon": 66.14497000872, "alt_km": 309.46075479707633, "timestamp": "2025-12-26T19:22:37.608036+00:00", "meta": {"OBJECT_NAME": "CZ-4B R/B", "OBJECT_ID": "2025-289B", "EPOCH": "2025-12-26T07:06:41.279904", "MEAN_MOTION": 15.70563405, "ECCENTRICITY": 0.01385671, "INCLINATION": 97.523, "RA_OF_ASC_NODE": 66.6435, "ARG_OF_PERICENTER": 311.4558, "MEAN_ANOMALY": 47.4869, "EPHEMERIS_TYPE": 0, "CLASSIFICATION_TYPE": "U", "NORAD_CAT_ID": 66989, "ELEMENT_SET_NO": 999, "REV_AT_EPOCH": 269, "BSTAR": 0.00057330468, "MEAN_MOTION_DOT": 0.00124556, "MEAN_MOTION_DDOT": 6.802872e-06}, "tle": {"line1": "1 66989U 25289B   25360.29631111  .00124556  68029-5  57330-3 0  9998", "line2": "2 66989  97.5230  66.6435 0138567 311.4558  47.4869 15.70563405  2694"}}, "geometry": {"type": "Point", "coordinates": [66.14497000872, 7.884914436967105]}}, {"type": "Feature", "properties": {"norad_id": 66990, "name": "TJS-22", "group": "last-30-days", "lat": 0.4375138083771352, "lon": 92.64895361622801, "alt_km": 35800.30090432111, "timestamp": "2025-12-26T19:22:37.608050+00:00", "meta": {"OBJECT_NAME": "TJS-22", "OBJECT_ID": "2025-290A", "EPOCH": "2025-12-26T08:16:10.334784", "MEAN_MOTION": 1.00271733, "ECCENTRICITY": 0.00033837, "INCLINATION": 1.9542, "RA_OF_ASC_NODE": 285.0346, "ARG_OF_PERICENTER": 343.1757, "MEAN_ANOMALY": 17.3739, "EPHEMERIS_TYPE": 0, "CLASSIFICATION_TYPE": "U", "NORAD_CAT_ID": 66990, "ELEMENT_SET_NO": 999, "REV_AT_EPOCH": 29, "BSTAR": 0, "MEAN_MOTION_DOT": 1.6e-07, "MEAN_MOTION_DDOT": 0}, "tle": {"line1": "1 66990U 25290A   25360.34456406  .00000016  00000+0  00000+0 0  9991", "line2": "2 66990   1.9542 285.0346 0003383 343.1757  17.3739  1.00271733   293"}}, "geometry": {"type": "Point", "coordinates": [92.64895361622801, 0.4375138083771352]}}, {"type": "Feature", "properties": {"norad_id": 66991, "name": "CZ-3B R/B", "group": "last-30-days", "lat": 27.838445851416175, "lon": 38.98942318059499, "alt_km": 4637.979725104416, "timestamp": "2025-12-26T19:22:37.608062+00:00", "meta": {"OBJECT_NAME": "CZ-3B R/B", "OBJECT_ID": "2025-290B", "EPOCH": "2025-12-15T17:23:33.043200", "MEAN_MOTION": 2.38388611, "ECCENTRICITY": 0.7240884, "INCLINATION": 28.4636, "RA_OF_ASC_NODE": 300.4666, "ARG_OF_PERICENTER": 182.7002, "MEAN_ANOMALY": 168.625, "EPHEMERIS_TYPE": 0, "CLASSIFICATION_TYPE": "U", "NORAD_CAT_ID": 66991, "ELEMENT_SET_NO": 999, "REV_AT_EPOCH": 16, "BSTAR": 0.00075879, "MEAN_MOTION_DOT": 0.00057911, "MEAN_MOTION_DDOT": -2.0514e-07}, "tle": {"line1": "1 66991U 25290B   25349.72468800  .00057911 -20514-6  75879-3 0  9998", "line2": "2 66991  28.4636 300.4666 7240884 182.7002 168.6250  2.38388611   165"}}, "geometry": {"type": "Point", "coordinates": [38.98942318059499, 27.838445851416175]}}, {"type": "Feature", "properties": {"norad_id": 66993, "name": "2025-292A", "group": "last-30-days", "lat": -4.024480728429034, "lon": -107.32131554814006, "alt_km": 548.2576531728628, "timestamp": "2025-12-26T19:22:37.608073+00:00", "meta": {"OBJECT_NAME": "2025-292A", "OBJECT_ID": "2025-292A", "EPOCH": "2025-12-26T13:46:22.272960", "MEAN_MOTION": 15.04599539, "ECCENTRICITY": 0.00147312, "INCLINATION": 97.6491, "RA_OF_ASC_NODE": 72.9893, "ARG_OF_PERICENTER": 222.823, "MEAN_ANOMALY": 137.185, "EPHEMERIS_TYPE": 0, "CLASSIFICATION_TYPE": "U", "NORAD_CAT_ID": 66993, "ELEMENT_SET_NO": 999, "REV_AT_EPOCH": 247, "BSTAR": 0.00033899847, "MEAN_MOTION_DOT": 4.708e-05, "MEAN_MOTION_DDOT": 0}, "tle": {"line1": "1 66993U 25292A   25360.57386890  .00004708  00000+0  33900-3 0  9991", "line2": "2 66993  97.6491  72.9893 0014731 222.8230 137.1850 15.04599539  2472"}}, "geometry": {"type": "Point", "coordinates": [-107.32131554814006, -4.024480728429034]}}, {"type": "Feature", "properties": {"norad_id": 66994, "name": "2025-292B", "group": "last-30-days", "lat": -6.707626617503299, "lon": -107.68248357271958, "alt_km": 548.3095535757602, "timestamp": "2025-12-26T19:22:37.608083+00:00", "meta": {"OBJECT_NAME": "2025-292B", "OBJECT_ID": "2025-292B", "EPOCH": "2025-12-26T02:35:19.114368", "MEAN_MOTION": 15.04644108, "ECCENTRICITY": 0.00144838, "INCLINATION": 97.6502, "RA_OF_ASC_NODE": 72.5307, "ARG_OF_PERICENTER": 224.6876, "MEAN_ANOMALY": 135.3184, "EPHEMERIS_TYPE": 0, "CLASSIFICATION_TYPE": "U", "NORAD_CAT_ID": 66994, "ELEMENT_SET_NO": 999, "REV_AT_EPOCH": 240, "BSTAR": 0.00034590708, "MEAN_MOTION_DOT": 4.811e-05, "MEAN_MOTION_DDOT": 0}, "tle": {"line1": "1 66994U 25292B   25360.10786012  .00004811  00000+0  34591-3 0  9993", "line2": "2 66994  97.6502  72.5307 0014483 224.6876 135.3184 15.04644108  2408"}}, "geometry": {"type": "Point", "coordinates": [-107.68248357271958, -6.707626617503299]}}, {"type": "Feature", "properties": {"norad_id": 66995, "name": "2025-292C", "group": "last-30-days", "lat": -7.881590218947856, "lon": -107.8441148042919, "alt_km": 548.1352400019259, "timestamp": "2025-12-26T19:22:37.608093+00:00", "meta": {"OBJECT_NAME": "2025-292C", "OBJECT_ID": "2025-292C", "EPOCH": "2025-12-25T05:50:07.257120", "MEAN_MOTION": 15.04668363, "ECCENTRICITY": 0.0014688, "INCLINATION": 97.6495, "RA_OF_ASC_NODE": 71.6733, "ARG_OF_PERICENTER": 227.9665, "MEAN_ANOMALY": 132.0312, "EPHEMERIS_TYPE": 0, "CLASSIFICATION_TYPE": "U", "NORAD_CAT_ID": 66995, "ELEMENT_SET_NO": 999, "REV_AT_EPOCH": 227, "BSTAR": 0.00041226, "MEAN_MOTION_DOT": 5.751e-05, "MEAN_MOTION_DDOT": 0}, "tle": {"line1": "1 66995U 25292C   25359.24313955  .00005751  00000+0  41226-3 0  9996", "line2": "2 66995  97.6495  71.6733 0014688 227.9665 132.0312 15.04668363  2273"}}, "geometry": {"type": "Point", "coordinates": [-107.8441148042919, -7.881590218947856]}}, {"type": "Feature", "properties": {"norad_id": 66996, "name": "2025-292D", "group": "last-30-days", "lat": -9.867515702438498, "lon": -108.11765636714178, "alt_km": 548.9046783847789, "timestamp": "2025-12-26T19:22:37.608102+00:00", "meta": {"OBJECT_NAME": "2025-292D", "OBJECT_ID": "2025-292D", "EPOCH": "2025-12-25T05:49:36.025248", "MEAN_MOTION": 15.04678565, "ECCENTRICITY": 0.0013797, "INCLINATION": 97.6491, "RA_OF_ASC_NODE": 71.6729, "ARG_OF_PERICENTER": 230.5158, "MEAN_ANOMALY": 129.4848, "EPHEMERIS_TYPE": 0, "CLASSIFICATION_TYPE": "U", "NORAD_CAT_ID": 66996, "ELEMENT_SET_NO": 999, "REV_AT_EPOCH": 227, "BSTAR": 0.00027339, "MEAN_MOTION_DOT": 3.792e-05, "MEAN_MOTION_DDOT": 0}, "tle": {"line1": "1 66996U 25292D   25359.24277807  .00003792  00000+0  27339-3 0  9994", "line2": "2 66996  97.6491  71.6729 0013797 230.5158 129.4848 15.04678565  2271"}}, "geometry": {"type": "Point", "coordinates": [-108.11765636714178, -9.867515702438498]}}, {"type": "Feature", "properties": {"norad_id": 66997, "name": "2025-292E", "group": "last-30-days", "lat": -14.870122815085013, "lon": -108.81727139597609, "alt_km": 548.4530531685596, "timestamp": "2025-12-26T19:22:37.608112+00:00", "meta": {"OBJECT_NAME": "2025-292E", "OBJECT_ID": "2025-292E", "EPOCH": "2025-12-26T15:19:15.523968", "MEAN_MOTION": 15.0478367, "ECCENTRICITY": 0.00143272, "INCLINATION": 97.6508, "RA_OF_ASC_NODE": 73.0608, "ARG_OF_PERICENTER": 226.8038, "MEAN_ANOMALY": 133.1992, "EPHEMERIS_TYPE": 0, "CLASSIFICATION_TYPE": "U", "NORAD_CAT_ID": 66997, "ELEMENT_SET_NO": 999, "REV_AT_EPOCH": 247, "BSTAR": 0.00034617165, "MEAN_MOTION_DOT": 4.833e-05, "MEAN_MOTION_DDOT": 0}, "tle": {"line1": "1 66997U 25292E   25360.63837412  .00004833  00000+0  34617-3 0  9998", "line2": "2 66997  97.6508  73.0608 0014327 226.8038 133.1992 15.04783670  2476"}}, "geometry": {"type": "Point", "coordinates": [-108.81727139597609, -14.870122815085013]}}, {"type": "Feature", "properties": {"norad_id": 66998, "name": "2025-292F", "group": "last-30-days", "lat": -24.6790226848312, "lon": -110.30608944308572, "alt_km": 547.297223368133, "timestamp": "2025-12-26T19:22:37.608124+00:00", "meta": {"OBJECT_NAME": "2025-292F", "OBJECT_ID": "2025-292F", "EPOCH": "2025-12-26T15:16:39.247104", "MEAN_MOTION": 15.04971192, "ECCENTRICITY": 0.00154667, "INCLINATION": 97.6528, "RA_OF_ASC_NODE": 73.0669, "ARG_OF_PERICENTER": 227.6294, "MEAN_ANOMALY": 132.3623, "EPHEMERIS_TYPE": 0, "CLASSIFICATION_TYPE": "U", "NORAD_CAT_ID": 66998, "ELEMENT_SET_NO": 999, "REV_AT_EPOCH": 248, "BSTAR": 0.00046715752, "MEAN_MOTION_DOT": 6.58e-05, "MEAN_MOTION_DDOT": 0}, "tle": {"line1": "1 66998U 25292F   25360.63656536  .00006580  00000+0  46716-3 0  9999", "line2": "2 66998  97.6528  73.0669 0015466 227.6294 132.3623 15.04971192  2485"}}, "geometry": {"type": "Point", "coordinates": [-110.30608944308572, -24.6790226848312]}}, {"type": "Feature", "properties": {"norad_id": 66999, "name": "2025-292G", "group": "last-30-days", "lat": -28.44447784882362, "lon": -110.93784146593569, "alt_km": 547.5782604078304, "timestamp": "2025-12-26T19:22:37.608136+00:00", "meta": {"OBJECT_NAME": "2025-292G", "OBJECT_ID": "2025-292G", "EPOCH": "2025-12-26T15:15:39.184416", "MEAN_MOTION": 15.05035308, "ECCENTRICITY": 0.00149614, "INCLINATION": 97.6537, "RA_OF_ASC_NODE": 73.0696, "ARG_OF_PERICENTER": 229.6191, "MEAN_ANOMALY": 130.373, "EPHEMERIS_TYPE": 0, "CLASSIFICATION_TYPE": "U", "NORAD_CAT_ID": 66999, "ELEMENT_SET_NO": 999, "REV_AT_EPOCH": 248, "BSTAR": 0.0004656068, "MEAN_MOTION_DOT": 6.569e-05, "MEAN_MOTION_DDOT": 0}, "tle": {"line1": "1 66999U 25292G   25360.63587019  .00006569  00000+0  46561-3 0  9994", "line2": "2 66999  97.6537  73.0696 0014961 229.6191 130.3730 15.05035308  2481"}}, "geometry": {"type": "Point", "coordinates": [-110.93784146593569, -28.44447784882362]}}]}